0 THOR ABLESTAR DEB
1 00334U 61015DL  13282.45282391  .00000029  00000-0  81060-4 0  5685
2 00334 066.9238 290.2298 0083434 215.0154 298.9098 13.91009843651913
0 THOR ABLESTAR DEB
1 00334U 61015DL  13283.46114998  .00000025  00000-0  78162-4 0  5690
2 00334 066.9237 287.7792 0083325 214.3317 308.1937 13.91009975652052
0 THOR ABLESTAR DEB
1 00334U 61015DL  13284.52378742 -.00000001  00000-0  58339-4 0  5708
2 00334 066.9238 285.1968 0083224 213.5953 229.4618 13.91010462652206
0 THOR ABLESTAR DEB
1 00334U 61015DL  13286.17650338 -.00000035  00000-0  31732-4 0  5711
2 00334 066.9239 281.1802 0083140 212.4438 225.6201 13.91010968652435
0 THOR ABLESTAR DEB
1 00334U 61015DL  13287.41365662 -.00000019  00000-0  44450-4 0  5726
2 00334 066.9241 278.1734 0083008 211.5839 300.8031 13.91010898652604
0 THOR ABLESTAR DEB
1 00334U 61015DL  13289.12817457 -.00000029  00000-0  36193-4 0  5737
2 00334 066.9243 274.0062 0082897 210.3814 246.4531 13.91011367652848
0 THOR ABLESTAR DEB
1 00334U 61015DL  13290.34522170 -.00000005  00000-0  54766-4 0  5749
2 00334 066.9246 271.0485 0082813 209.5400 220.9505 13.91011536653012
0 THOR ABLESTAR DEB
1 00334U 61015DL  13291.36851462  .00000023  00000-0  76505-4 0  5756
2 00334 066.9247 268.5617 0082734 208.8193 305.2169 13.91011434653159
0 THOR ABLESTAR DEB
1 00334U 61015DL  13292.37581991  .00000045  00000-0  93294-4 0  5764
2 00334 066.9247 266.1135 0082659 208.1075 309.4251 13.91011414653297
0 THOR ABLESTAR DEB
1 00334U 61015DL  13293.43935427  .00000034  00000-0  85500-4 0  5779
2 00334 066.9247 263.5289 0082579 207.3625 235.1989 13.91011730653442
0 THOR ABLESTAR DEB
1 00334U 61015DL  13295.01951569  .00000019  00000-0  73303-4 0  5782
2 00334 066.9248 259.6889 0082449 206.2540 228.0476 13.91012216653661
0 THOR ABLESTAR DEB
1 00334U 61015DL  13296.17377317  .00000030  00000-0  81871-4 0  5796
2 00334 066.9248 256.8839 0082358 205.4434 248.1347 13.91012316653826
